[{"OBJECT_NAME":"STARLINK-5686","OBJECT_ID":"2023-015B","EPOCH":"2026-03-09T22:08:18.010752","MEAN_MOTION":15.03531284,"ECCENTRICITY":0.00011421,"INCLINATION":43.0018,"RA_OF_ASC_NODE":325.1936,"ARG_OF_PERICENTER":277.4913,"MEAN_ANOMALY":82.58,"EPHEMERIS_TYPE":0,"CLASSIFICATION_TYPE":"U","NORAD_CAT_ID":55450,"ELEMENT_SET_NO":999,"REV_AT_EPOCH":17172,"BSTAR":0.0081001838,"MEAN_MOTION_DOT":0.00113991,"MEAN_MOTION_DDOT":0},{"OBJECT_NAME":"COSMOS 397 DEB","OBJECT_ID":"1971-015L","EPOCH":"2026-03-09T22:11:19.295232","MEAN_MOTION":13.48158936,"ECCENTRICITY":0.07121473,"INCLINATION":65.7094,"RA_OF_ASC_NODE":322.2428,"ARG_OF_PERICENTER":175.4627,"MEAN_ANOMALY":185.3369,"EPHEMERIS_TYPE":0,"CLASSIFICATION_TYPE":"U","NORAD_CAT_ID":5017,"ELEMENT_SET_NO":999,"REV_AT_EPOCH":62618,"BSTAR":0.00068402062,"MEAN_MOTION_DOT":2.026e-5,"MEAN_MOTION_DDOT":0}]
